[{"OBJECT_NAME":"COSMOS 2538","OBJECT_ID":"2019-039D","EPOCH":"2026-03-09T23:22:28.343424","MEAN_MOTION":15.19536029,"ECCENTRICITY":0.00437345,"INCLINATION":97.5929,"RA_OF_ASC_NODE":147.7512,"ARG_OF_PERICENTER":31.8471,"MEAN_ANOMALY":328.5393,"EPHEMERIS_TYPE":0,"CLASSIFICATION_TYPE":"U","NORAD_CAT_ID":44424,"ELEMENT_SET_NO":999,"REV_AT_EPOCH":36483,"BSTAR":0.00035711669,"MEAN_MOTION_DOT":7.713e-5,"MEAN_MOTION_DDOT":0},{"OBJECT_NAME":"STARLINK-31582","OBJECT_ID":"2024-074M","EPOCH":"2026-03-08T19:03:00.463968","MEAN_MOTION":15.27571925,"ECCENTRICITY":6.456e-5,"INCLINATION":42.9994,"RA_OF_ASC_NODE":348.9022,"ARG_OF_PERICENTER":357.187,"MEAN_ANOMALY":2.8978,"EPHEMERIS_TYPE":0,"CLASSIFICATION_TYPE":"U","NORAD_CAT_ID":59545,"ELEMENT_SET_NO":999,"REV_AT_EPOCH":10587,"BSTAR":-4.4703632e-5,"MEAN_MOTION_DOT":-1.491e-5,"MEAN_MOTION_DDOT":0}]
